{"type": "FeatureCollection", "features": [ {"type": "Feature", "properties": {"norad_id": 34468, "name": "COSMOS 2251 DEB", "group": "cosmos-2251-debris", "lat": -52.670035607450245, "lon": 77.07393192299283, "alt_km": 714.2704767829127, "timestamp": "2025-12-22T08:58:20.757141+00:00", "meta": {"OBJECT_NAME": "COSMOS 2251 DEB", "OBJECT_ID": "1993-036TM", "EPOCH": "2025-12-22T00:56:13.410240", "MEAN_MOTION": 14.47648693, "ECCENTRICITY": 0.00763, "INCLINATION": 74.013, "RA_OF_ASC_NODE": 99.7823, "ARG_OF_PERICENTER": 242.8301, "MEAN_ANOMALY": 116.5066, "EPHEMERIS_TYPE": 0, "CLASSIFICATION_TYPE": "U", "NORAD_CAT_ID": 34468, "ELEMENT_SET_NO": 999, "REV_AT_EPOCH": 88596, "BSTAR": 0.00032521, "MEAN_MOTION_DOT": 1.214e-05, "MEAN_MOTION_DDOT": 0}, "tle": {"line1": "1 34468U 93036TM  25356.03904410  .00001214  00000+0  32521-3 0  9991", "line2": "2 34468  74.0130  99.7823 0076300 242.8301 116.5066 14.47648693885969"}}, "geometry": {"type": "Point", "coordinates": [77.07393192299283, -52.670035607450245]}}, {"type": "Feature", "properties": {"norad_id": 34472, "name": "COSMOS 2251 DEB", "group": "cosmos-2251-debris", "lat": 13.233312121942362, "lon": -101.54686754866641, "alt_km": 824.3509225869202, "timestamp": "2025-12-22T08:58:20.757151+00:00", "meta": {"OBJECT_NAME": "COSMOS 2251 DEB", "OBJECT_ID": "1993-036TR", "EPOCH": "2025-12-21T16:22:23.941056", "MEAN_MOTION": 13.70344234, "ECCENTRICITY": 0.0327831, "INCLINATION": 74.0843, "RA_OF_ASC_NODE": 83.4375, "ARG_OF_PERICENTER": 212.5022, "MEAN_ANOMALY": 145.5535, "EPHEMERIS_TYPE": 0, "CLASSIFICATION_TYPE": "U", "NORAD_CAT_ID": 34472, "ELEMENT_SET_NO": 999, "REV_AT_EPOCH": 83849, "BSTAR": 0.00054868, "MEAN_MOTION_DOT": 6.85e-06, "MEAN_MOTION_DDOT": 0}, "tle": {"line1": "1 34472U 93036TR  25355.68222154  .00000685  00000+0  54868-3 0  9993", "line2": "2 34472  74.0843  83.4375 0327831 212.5022 145.5535 13.70344234838497"}}, "geometry": {"type": "Point", "coordinates": [-101.54686754866641, 13.233312121942362]}}, {"type": "Feature", "properties": {"norad_id": 34474, "name": "COSMOS 2251 DEB", "group": "cosmos-2251-debris", "lat": 59.462186269886445, "lon": 100.42133130696854, "alt_km": 876.347592423188, "timestamp": "2025-12-22T08:58:20.757161+00:00", "meta": {"OBJECT_NAME": "COSMOS 2251 DEB", "OBJECT_ID": "1993-036TT", "EPOCH": "2025-12-21T07:31:55.934112", "MEAN_MOTION": 14.06476369, "ECCENTRICITY": 0.01991372, "INCLINATION": 74.0784, "RA_OF_ASC_NODE": 311.2089, "ARG_OF_PERICENTER": 22.9422, "MEAN_ANOMALY": 126.0693, "EPHEMERIS_TYPE": 0, "CLASSIFICATION_TYPE": "U", "NORAD_CAT_ID": 34474, "ELEMENT_SET_NO": 999, "REV_AT_EPOCH": 85629, "BSTAR": 0.001939228, "MEAN_MOTION_DOT": 3.816e-05, "MEAN_MOTION_DDOT": 0}, "tle": {"line1": "1 34474U 93036TT  25355.31384183  .00003816  00000+0  19392-2 0  9997", "line2": "2 34474  74.0784 311.2089 0199137  22.9422 126.0693 14.06476369856292"}}, "geometry": {"type": "Point", "coordinates": [100.42133130696854, 59.462186269886445]}}, {"type": "Feature", "properties": {"norad_id": 34476, "name": "COSMOS 2251 DEB", "group": "cosmos-2251-debris", "lat": -34.877716364913155, "lon": 54.73282296058097, "alt_km": 777.9418154251716, "timestamp": "2025-12-22T08:58:20.757171+00:00", "meta": {"OBJECT_NAME": "COSMOS 2251 DEB", "OBJECT_ID": "1993-036TV", "EPOCH": "2025-12-19T15:07:53.916960", "MEAN_MOTION": 13.82094314, "ECCENTRICITY": 0.0321638, "INCLINATION": 74.0055, "RA_OF_ASC_NODE": 70.8879, "ARG_OF_PERICENTER": 289.0132, "MEAN_ANOMALY": 67.6405, "EPHEMERIS_TYPE": 0, "CLASSIFICATION_TYPE": "U", "NORAD_CAT_ID": 34476, "ELEMENT_SET_NO": 999, "REV_AT_EPOCH": 83733, "BSTAR": 0.0025746, "MEAN_MOTION_DOT": 4.089e-05, "MEAN_MOTION_DDOT": 0}, "tle": {"line1": "1 34476U 93036TV  25353.63048515  .00004089  00000+0  25746-2 0  9991", "line2": "2 34476  74.0055  70.8879 0321638 289.0132  67.6405 13.82094314837331"}}, "geometry": {"type": "Point", "coordinates": [54.73282296058097, -34.877716364913155]}}, {"type": "Feature", "properties": {"norad_id": 34477, "name": "COSMOS 2251 DEB", "group": "cosmos-2251-debris", "lat": -65.33962323846268, "lon": 12.397997936003714, "alt_km": 676.6817626879356, "timestamp": "2025-12-22T08:58:20.757181+00:00", "meta": {"OBJECT_NAME": "COSMOS 2251 DEB", "OBJECT_ID": "1993-036TW", "EPOCH": "2025-12-21T07:28:47.243424", "MEAN_MOTION": 14.56918163, "ECCENTRICITY": 0.00767881, "INCLINATION": 73.9787, "RA_OF_ASC_NODE": 53.1663, "ARG_OF_PERICENTER": 238.7332, "MEAN_ANOMALY": 240.7629, "EPHEMERIS_TYPE": 0, "CLASSIFICATION_TYPE": "U", "NORAD_CAT_ID": 34477, "ELEMENT_SET_NO": 999, "REV_AT_EPOCH": 88750, "BSTAR": 0.00057201543, "MEAN_MOTION_DOT": 2.641e-05, "MEAN_MOTION_DDOT": 0}, "tle": {"line1": "1 34477U 93036TW  25355.31165791  .00002641  00000+0  57202-3 0  9990", "line2": "2 34477  73.9787  53.1663 0076788 238.7332 240.7629 14.56918163887508"}}, "geometry": {"type": "Point", "coordinates": [12.397997936003714, -65.33962323846268]}}, {"type": "Feature", "properties": {"norad_id": 34478, "name": "COSMOS 2251 DEB", "group": "cosmos-2251-debris", "lat": 28.584173862118053, "lon": 158.08344801523617, "alt_km": 525.1888769697744, "timestamp": "2025-12-22T08:58:20.757192+00:00", "meta": {"OBJECT_NAME": "COSMOS 2251 DEB", "OBJECT_ID": "1993-036TX", "EPOCH": "2025-12-21T04:12:46.485792", "MEAN_MOTION": 15.08639002, "ECCENTRICITY": 0.00340243, "INCLINATION": 74.0409, "RA_OF_ASC_NODE": 349.5203, "ARG_OF_PERICENTER": 208.4525, "MEAN_ANOMALY": 276.406, "EPHEMERIS_TYPE": 0, "CLASSIFICATION_TYPE": "U", "NORAD_CAT_ID": 34478, "ELEMENT_SET_NO": 999, "REV_AT_EPOCH": 89100, "BSTAR": 0.0018985498, "MEAN_MOTION_DOT": 0.00030215, "MEAN_MOTION_DDOT": 0}, "tle": {"line1": "1 34478U 93036TX  25355.17553803  .00030215  00000+0  18985-2 0  9992", "line2": "2 34478  74.0409 349.5203 0034024 208.4525 276.4060 15.08639002891004"}}, "geometry": {"type": "Point", "coordinates": [158.08344801523617, 28.584173862118053]}}, {"type": "Feature", "properties": {"norad_id": 34481, "name": "COSMOS 2251 DEB", "group": "cosmos-2251-debris", "lat": -1.172158602756627, "lon": 35.46906089257215, "alt_km": 829.6653523716905, "timestamp": "2025-12-22T08:58:20.757202+00:00", "meta": {"OBJECT_NAME": "COSMOS 2251 DEB", "OBJECT_ID": "1993-036UA", "EPOCH": "2025-12-22T04:13:14.564928", "MEAN_MOTION": 14.32582929, "ECCENTRICITY": 0.0070377, "INCLINATION": 73.979, "RA_OF_ASC_NODE": 36.1685, "ARG_OF_PERICENTER": 208.7649, "MEAN_ANOMALY": 209.0545, "EPHEMERIS_TYPE": 0, "CLASSIFICATION_TYPE": "U", "NORAD_CAT_ID": 34481, "ELEMENT_SET_NO": 999, "REV_AT_EPOCH": 87584, "BSTAR": 0.0005487, "MEAN_MOTION_DOT": 1.505e-05, "MEAN_MOTION_DDOT": 0}, "tle": {"line1": "1 34481U 93036UA  25356.17586302  .00001505  00000+0  54870-3 0  9991", "line2": "2 34481  73.9790  36.1685 0070377 208.7649 209.0545 14.32582929875848"}}, "geometry": {"type": "Point", "coordinates": [35.46906089257215, -1.172158602756627]}}, {"type": "Feature", "properties": {"norad_id": 34482, "name": "COSMOS 2251 DEB", "group": "cosmos-2251-debris", "lat": 1.10895205623147, "lon": -154.74673755636664, "alt_km": 669.9137241325052, "timestamp": "2025-12-22T08:58:20.757212+00:00", "meta": {"OBJECT_NAME": "COSMOS 2251 DEB", "OBJECT_ID": "1993-036UB", "EPOCH": "2025-12-22T01:30:43.351200", "MEAN_MOTION": 14.69348429, "ECCENTRICITY": 0.0044456, "INCLINATION": 74.0354, "RA_OF_ASC_NODE": 205.5376, "ARG_OF_PERICENTER": 263.8422, "MEAN_ANOMALY": 253.3149, "EPHEMERIS_TYPE": 0, "CLASSIFICATION_TYPE": "U", "NORAD_CAT_ID": 34482, "ELEMENT_SET_NO": 999, "REV_AT_EPOCH": 88324, "BSTAR": 0.0016777, "MEAN_MOTION_DOT": 0.00010047, "MEAN_MOTION_DDOT": 0}, "tle": {"line1": "1 34482U 93036UB  25356.06300175  .00010047  00000+0  16777-2 0  9996", "line2": "2 34482  74.0354 205.5376 0044456 263.8422 253.3149 14.69348429883246"}}, "geometry": {"type": "Point", "coordinates": [-154.74673755636664, 1.10895205623147]}}, {"type": "Feature", "properties": {"norad_id": 34544, "name": "COSMOS 2251 DEB", "group": "cosmos-2251-debris", "lat": -53.43248168952812, "lon": 31.324127327340527, "alt_km": 794.9622859910469, "timestamp": "2025-12-22T08:58:20.757222+00:00", "meta": {"OBJECT_NAME": "COSMOS 2251 DEB", "OBJECT_ID": "1993-036UE", "EPOCH": "2025-12-21T21:30:37.256256", "MEAN_MOTION": 13.54670498, "ECCENTRICITY": 0.0383691, "INCLINATION": 73.9139, "RA_OF_ASC_NODE": 189.2056, "ARG_OF_PERICENTER": 215.9783, "MEAN_ANOMALY": 210.8549, "EPHEMERIS_TYPE": 0, "CLASSIFICATION_TYPE": "U", "NORAD_CAT_ID": 34544, "ELEMENT_SET_NO": 999, "REV_AT_EPOCH": 83006, "BSTAR": 0.00039408, "MEAN_MOTION_DOT": 4.09e-06, "MEAN_MOTION_DDOT": 0}, "tle": {"line1": "1 34544U 93036UE  25355.89626454  .00000409  00000+0  39408-3 0  9994", "line2": "2 34544  73.9139 189.2056 0383691 215.9783 210.8549 13.54670498830063"}}, "geometry": {"type": "Point", "coordinates": [31.324127327340527, -53.43248168952812]}}, {"type": "Feature", "properties": {"norad_id": 34546, "name": "COSMOS 2251 DEB", "group": "cosmos-2251-debris", "lat": 74.01468887725296, "lon": -40.26701718458837, "alt_km": 746.0863718769815, "timestamp": "2025-12-22T08:58:20.757232+00:00", "meta": {"OBJECT_NAME": "COSMOS 2251 DEB", "OBJECT_ID": "1993-036UG", "EPOCH": "2025-12-21T19:49:27.452352", "MEAN_MOTION": 14.45445236, "ECCENTRICITY": 0.0022038, "INCLINATION": 74.0297, "RA_OF_ASC_NODE": 232.2437, "ARG_OF_PERICENTER": 305.0419, "MEAN_ANOMALY": 174.8231, "EPHEMERIS_TYPE": 0, "CLASSIFICATION_TYPE": "U", "NORAD_CAT_ID": 34546, "ELEMENT_SET_NO": 999, "REV_AT_EPOCH": 88157, "BSTAR": 0.00040952, "MEAN_MOTION_DOT": 1.42e-05, "MEAN_MOTION_DDOT": 0}, "tle": {"line1": "1 34546U 93036UG  25355.82601218  .00001420  00000+0  40952-3 0  9990", "line2": "2 34546  74.0297 232.2437 0022038 305.0419 174.8231 14.45445236881576"}}, "geometry": {"type": "Point", "coordinates": [-40.26701718458837, 74.01468887725296]}}]}